CUTE-1 (CO-55)          
1 27844U 03031E   23110.02006988  .00000714  00000+0  33798-3 0  9996
2 27844  98.6800 118.1263 0008686 297.8914  62.1384 14.22731826 27490
CUBESAT XI-IV (CO-57)   
1 27848U 03031J   23109.87056117  .00000649  00000+0  31190-3 0  9991
2 27848  98.6838 118.4164 0008762 314.8379  45.2086 14.22248623 27217
CUBESAT XI-V            
1 28895U 05043F   23109.35580757  .00003550  00000+0  66395-3 0  9993
2 28895  98.1434 241.9056 0015166 255.9999 103.9518 14.65430189932199
CUTE-1.7+APD II (CO-65) 
1 32785U 08021C   23109.78574736  .00007859  00000+0  78309-3 0  9996
2 32785  97.7011  77.0287 0010556 302.7214  57.2987 14.91819090812112
AAUSAT-II               
1 32788U 08021F   23109.37656098  .00014703  00000+0  11060-2 0  9992
2 32788  97.5540  90.1725 0007654 180.6587 179.4630 15.02620400814273
DELFI-C3 (DO-64)        
1 32789U 08021G   23110.09721605  .00055099  00000+0  18599-2 0  9998
2 32789  97.3089 132.2222 0004460 348.5137  11.6002 15.30483738818588
SEEDS II (CO-66)        
1 32791U 08021J   23109.35982432  .00010213  00000+0  91445-3 0  9996
2 32791  97.6518  81.8794 0010135 245.8427 114.1735 14.95976973812866
SWISSCUBE               
1 35932U 09051B   23110.04989053  .00002184  00000+0  49021-3 0  9995
2 35932  98.5294 339.0113 0007387 176.0248 184.1010 14.57583825720781
BEESAT-1                
1 35933U 09051C   23109.87107940  .00001763  00000+0  39844-3 0  9996
2 35933  98.5228 340.2122 0005347 186.5813 173.5315 14.57509059720799
ITUPSAT1                
1 35935U 09051E   23109.59866877  .00001540  00000+0  35653-3 0  9995
2 35935  98.5327 339.8996 0007495 195.8691 164.2272 14.56567231720465
TISAT 1                 
1 36799U 10035E   23109.88863203  .00008686  00000+0  78500-3 0  9996
2 36799  98.1445 337.2416 0011647 162.1385 198.0247 14.95670074693516
M-CUBED & EXP-1 PRIME   
1 37855U 11061F   23109.74300884  .00033568  00000+0  11278-2 0  9991
2 37855 101.7049  38.8347 0125381 218.3481 140.8776 15.23487358627657
AEROCUBE 4.5A           
1 38767U 12048K   23109.69405674  .00020964  00000+0  14023-2 0  9994
2 38767  64.6651 226.5623 0134155 174.7306 185.5260 14.99842058196614
AEROCUBE 4.5B           
1 38768U 12048L   23109.51141094  .00018871  00000+0  10932-2 0  9998
2 38768  64.6644 173.4649 0113853 169.2025 191.1580 15.06900755197127
STRAND-1                
1 39090U 13009E   23109.80495878  .00000721  00000+0  26509-3 0  9992
2 39090  98.3918 304.7614 0010165  80.3260 279.9074 14.35550878531348
BRITE-AUSTRIA           
1 39091U 13009F   23109.79927276  .00000447  00000+0  17007-3 0  9991
2 39091  98.3944 303.9741 0011633  86.1780 274.0736 14.35453889531370
SOMP                    
1 39134U 13015E   23110.03820731  .00110250  00000+0  18189-2 0  9998
2 39134  64.8500 124.5920 0016609 264.2776  95.6473 15.51539053554313
BEESAT-3                
1 39135U 13015F   23109.88320448  .00054933  00000+0  14198-2 0  9991
2 39135  64.8599 172.0420 0022582 248.0821 111.7915 15.38528291552959
BEESAT-2                
1 39136U 13015G   23109.56319384  .00041730  00000+0  11693-2 0  9992
2 39136  64.8699 183.7863 0026642 283.1618  76.6545 15.36026391552664
NEE-01 PEGASO           
1 39151U 13018B   23110.28408261  .00003663  00000+0  46231-3 0  9996
2 39151  98.0024 220.3907 0015572 344.4242  15.6489 14.82471636539114
ESTCUBE 1               
1 39161U 13021C   23110.18794030  .00003110  00000+0  47941-3 0  9998
2 39161  97.8715 184.0980 0009578 150.4380 209.7390 14.74075807534633
POPACS 1                
1 39268U 13055D   23110.17356042  .00025637  00000+0  58743-3 0  9999
2 39268  80.9910 266.5705 0516537 345.9448  12.7810 14.64170645499416
POPACS 2                
1 39269U 13055E   23109.87840801  .00023032  00000+0  59495-3 0  9998
2 39269  81.0088 334.1100 0613066 161.2550 201.2350 14.41422517494179
POPACS 3                
1 39270U 13055F   23109.45163409  .00008226  00000+0  24414-3 0  9997
2 39270  81.0180  13.5551 0665268 272.6184  79.9067 14.27461026472187
ZACUBE-1 (TSHEPISOSAT)  
1 39417U 13066B   23110.14004130  .00005344  00000+0  62225-3 0  9995
2 39417  97.6805  73.8792 0056973 117.4313 243.2713 14.84493482508582
WNISAT-1                
1 39423U 13066H   23109.86761511  .00001382  00000+0  27895-3 0  9994
2 39423  97.7108 333.1092 0171668 259.8015  98.3781 14.54062790498976
TRITON-1                
1 39427U 13066M   23110.21059859  .00006125  00000+0  92495-3 0  9992
2 39427  97.8346  38.2782 0108985   4.4088 355.8053 14.70660027504022
DELFI-N3XT              
1 39428U 13066N   23109.73066050  .00012125  00000+0  17529-2 0  9990
2 39428  97.8330  36.6665 0112666  18.0610 342.4550 14.72007064503538
GOMX-1                  
1 39430U 13066Q   23110.13797339  .00002829  00000+0  49769-3 0  9992
2 39430  97.7867   4.6553 0146471 156.4476 204.3546 14.61535761501069
CUBEBUG-2 (LO-74)       
1 39440U 13066AA  23109.79192416  .00004898  00000+0  63885-3 0  9991
2 39440  97.7681  60.4870 0074765 216.1528 143.4617 14.79029680505528
NEE-02 KRYSAOR          
1 39441U 13066AB  23110.09875224  .00003011  00000+0  41229-3 0  9996
2 39441  97.7791  57.7022 0077199 231.5469 127.8797 14.77178339506438
FUNCUBE-1 (AO-73)       
1 39444U 13066AE  23109.42668860  .00007242  00000+0  81026-3 0  9999
2 39444  97.6667  75.6908 0055471 106.0234 254.7101 14.86061480506919
UWE-3                   
1 39446U 13066AG  23109.75192521  .00005625  00000+0  69507-3 0  9996
2 39446  97.7299  66.6523 0066289 168.5457 191.7283 14.81623779505779
BRITE-CA1 (TORONTO)     
1 40020U 14033L   23109.67110768  .00001718  00000+0  29305-3 0  9996
2 40020  97.8172 258.8786 0085646   7.8321 352.4199 14.67840907472569
DUCHIFAT-1              
1 40021U 14033M   23109.42144685  .00011982  00000+0  10437-2 0  9994
2 40021  98.0524  71.5500 0012857 107.0381 253.2249 14.97000392480394
NANOSATC-BR1            
1 40024U 14033Q   23110.11318706  .00010757  00000+0  98268-3 0  9990
2 40024  98.0236  63.8347 0012545 110.8918 249.3646 14.95164993480250
QB50P1                  
1 40025U 14033R   23109.65071062  .00008320  00000+0  79815-3 0  9999
2 40025  97.9927  55.4079 0012834 123.0762 237.1691 14.93305401479408
QB50P2                  
1 40032U 14033Y   23109.33945928  .00006533  00000+0  64081-3 0  9996
2 40032  97.9645  49.1814 0012260 121.5368 238.7049 14.92511177479196
PERSEUS-M2              
1 40037U 14033AD  23109.84972069  .00003065  00000+0  33777-3 0  9998
2 40037  97.9074  35.6548 0014700 146.8344 213.3797 14.88191000478671
PERSEUS-M1              
1 40039U 14033AF  23109.85721516  .00003653  00000+0  40494-3 0  9997
2 40039  97.8939  32.7986 0014546 146.1984 214.0162 14.87833520478546
POLYITAN-1              
1 40042U 14033AJ  23109.74937306  .00011371  00000+0  10694-2 0  9999
2 40042  98.0047  57.2370 0015012 115.0482 245.2298 14.93977136479310
TIGRISAT                
1 40043U 14033AK  23109.76313488  .00003912  00000+0  55765-3 0  9992
2 40043  97.6623 287.7707 0056809 242.6070 116.9354 14.76221435474798
AEROCUBE 6A             
1 40045U 14033AM  23109.75768540  .00006970  00000+0  94400-3 0  9992
2 40045  97.6577 297.3437 0054318 227.7024 131.9577 14.78216790474997
AEROCUBE 6B             
1 40046U 14033AN  23109.48290778  .00006834  00000+0  91048-3 0  9990
2 40046  97.6516 295.5219 0052947 225.8356 133.8498 14.78966497474979
UKUBE-1                 
1 40074U 14037F   23109.68302672  .00006876  00000+0  75974-3 0  9990
2 40074  98.3479  11.1103 0005034  35.6358 324.5353 14.87756482475559
BRITE-PL2 (HEWELIUSZ)   
1 40119U 14049B   23109.74657323  .00003972  00000+0  45610-3 0  9994
2 40119  97.8777 207.3718 0015741 322.7861  37.2262 14.86328138469484
FIREBIRD 4              
1 40378U 15003C   23109.72542055  .00145894  00000+0  18073-2 0  9997
2 40378  99.0793  52.3024 0058601  57.0457 303.6409 15.57483631455502
GRIFEX                  
1 40379U 15003D   23109.71400689  .00050697  00000+0  12386-2 0  9990
2 40379  99.0795  32.6087 0091132 111.9280 249.1677 15.36393258454383
CP10 (EXOCUBE)          
1 40380U 15003E   23109.69635164  .00032002  00000+0  95276-3 0  9997
2 40380  99.0865  23.1976 0103930 143.1995 217.6433 15.29386021453779
EXACTVIEW 9             
1 40936U 15052G   23110.09509730  .00003906  00000+0  43705-3 0  9994
2 40936   6.0022 143.5812 0010221 187.4514 172.5462 14.78311939408683
AEROCUBE 5C             
1 40965U 15058B   23109.69685768  .00005527  00000+0  61531-3 0  9990
2 40965  64.7739 220.1707 0162288  94.0702 267.8971 14.78933634194192
AEROCUBE 7              
1 40966U 15058C   23109.67360716  .00005752  00000+0  62970-3 0  9990
2 40966  64.7728 216.6860 0159847  93.8121 268.1278 14.79797684194200
ATHENOXAT 1             
1 41168U 15077C   23110.23855223  .00130695  00000+0  25638-2 0  9996
2 41168  14.9852 311.9399 0003434 324.1585 181.7952 15.45433519407305
GALASSIA                
1 41170U 15077E   23110.21355903  .00048181  00000+0  13526-2 0  9998
2 41170  14.9879 313.4496 0007660 299.9121  60.0442 15.34607145407288
VELOX-II                
1 41171U 15077F   23107.23243107  .00032693  00000+0  12384-2 0  9991
2 41171  14.9909  69.9897 0005961  42.3112 317.7669 15.24838414405930
HORYU-4                 
1 41340U 16012D   23109.59239164  .00010299  00000+0  66316-3 0  9991
2 41340  31.0039 199.9799 0011440  16.6613 343.4398 15.07058685393875
E-ST@R-II               
1 41459U 16025D   23110.20787500  .00034710  00000+0  10982-2 0  9999
2 41459  98.1917 305.7738 0112992 300.2846  58.7189 15.26603127384040
AAUSAT 4                
1 41460U 16025E   23109.81148521  .00102191  00000+0  19073-2 0  9999
2 41460  98.1684 316.0247 0074834 261.0170 109.5076 15.45328935384726
BEESAT-4                
1 41619U 16040W   23109.71093584  .00085605  00000+0  14521-2 0  9992
2 41619  97.1662 159.1587 0007081 106.1617 254.0416 15.51176726367782
